{"type": "FeatureCollection", "features": [ {"type": "Feature", "properties": {"norad_id": 42987, "name": "SKYSAT-C11", "group": "resource", "lat": 66.46274466905815, "lon": -28.93561927821077, "alt_km": 415.92427406251045, "timestamp": "2025-12-21T22:41:41.105135+00:00", "meta": {"OBJECT_NAME": "SKYSAT-C11", "OBJECT_ID": "2017-068A", "EPOCH": "2025-12-21T08:14:47.895360", "MEAN_MOTION": 15.47785613, "ECCENTRICITY": 0.0001167, "INCLINATION": 97.4149, "RA_OF_ASC_NODE": 133.0504, "ARG_OF_PERICENTER": 99.4516, "MEAN_ANOMALY": 260.6866, "EPHEMERIS_TYPE": 0, "CLASSIFICATION_TYPE": "U", "NORAD_CAT_ID": 42987, "ELEMENT_SET_NO": 999, "REV_AT_EPOCH": 45564, "BSTAR": 0.00034865438, "MEAN_MOTION_DOT": 0.00018009, "MEAN_MOTION_DDOT": 0}, "tle": {"line1": "1 42987U 17068A   25355.34360990  .00018009  00000+0  34865-3 0  9992", "line2": "2 42987  97.4149 133.0504 0001167  99.4516 260.6866 15.47785613455646"}}, "geometry": {"type": "Point", "coordinates": [-28.93561927821077, 66.46274466905815]}}, {"type": "Feature", "properties": {"norad_id": 42988, "name": "SKYSAT-C10", "group": "resource", "lat": 40.11598532986442, "lon": 120.51309407217269, "alt_km": 463.1542525032719, "timestamp": "2025-12-21T22:41:41.105146+00:00", "meta": {"OBJECT_NAME": "SKYSAT-C10", "OBJECT_ID": "2017-068B", "EPOCH": "2025-12-21T14:40:54.607296", "MEAN_MOTION": 15.32236176, "ECCENTRICITY": 0.00053877, "INCLINATION": 97.4268, "RA_OF_ASC_NODE": 126.4882, "ARG_OF_PERICENTER": 79.429, "MEAN_ANOMALY": 280.7558, "EPHEMERIS_TYPE": 0, "CLASSIFICATION_TYPE": "U", "NORAD_CAT_ID": 42988, "ELEMENT_SET_NO": 999, "REV_AT_EPOCH": 45515, "BSTAR": 0.00028964294, "MEAN_MOTION_DOT": 8.941e-05, "MEAN_MOTION_DDOT": 0}, "tle": {"line1": "1 42988U 17068B   25355.61174314  .00008941  00000+0  28964-3 0  9993", "line2": "2 42988  97.4268 126.4882 0005387  79.4290 280.7558 15.32236176455155"}}, "geometry": {"type": "Point", "coordinates": [120.51309407217269, 40.11598532986442]}}, {"type": "Feature", "properties": {"norad_id": 42989, "name": "SKYSAT-C9", "group": "resource", "lat": 20.396338842019127, "lon": 123.49570126132195, "alt_km": 451.61254983584695, "timestamp": "2025-12-21T22:41:41.105157+00:00", "meta": {"OBJECT_NAME": "SKYSAT-C9", "OBJECT_ID": "2017-068C", "EPOCH": "2025-12-21T14:47:21.654240", "MEAN_MOTION": 15.36257498, "ECCENTRICITY": 0.00104402, "INCLINATION": 97.4196, "RA_OF_ASC_NODE": 125.941, "ARG_OF_PERICENTER": 59.3337, "MEAN_ANOMALY": 300.8934, "EPHEMERIS_TYPE": 0, "CLASSIFICATION_TYPE": "U", "NORAD_CAT_ID": 42989, "ELEMENT_SET_NO": 999, "REV_AT_EPOCH": 45544, "BSTAR": 0.00030681876, "MEAN_MOTION_DOT": 0.00010783, "MEAN_MOTION_DDOT": 0}, "tle": {"line1": "1 42989U 17068C   25355.61622285  .00010783  00000+0  30682-3 0  9996", "line2": "2 42989  97.4196 125.9410 0010440  59.3337 300.8934 15.36257498455440"}}, "geometry": {"type": "Point", "coordinates": [123.49570126132195, 20.396338842019127]}}, {"type": "Feature", "properties": {"norad_id": 42990, "name": "SKYSAT-C8", "group": "resource", "lat": -66.42878187072517, "lon": -71.41472684052697, "alt_km": 473.3350260251482, "timestamp": "2025-12-21T22:41:41.105168+00:00", "meta": {"OBJECT_NAME": "SKYSAT-C8", "OBJECT_ID": "2017-068D", "EPOCH": "2025-12-21T15:21:08.427168", "MEAN_MOTION": 15.33101109, "ECCENTRICITY": 0.00010473, "INCLINATION": 97.4289, "RA_OF_ASC_NODE": 125.6798, "ARG_OF_PERICENTER": 296.3414, "MEAN_ANOMALY": 63.7721, "EPHEMERIS_TYPE": 0, "CLASSIFICATION_TYPE": "U", "NORAD_CAT_ID": 42990, "ELEMENT_SET_NO": 999, "REV_AT_EPOCH": 45507, "BSTAR": 0.00030233882, "MEAN_MOTION_DOT": 9.591e-05, "MEAN_MOTION_DDOT": 0}, "tle": {"line1": "1 42990U 17068D   25355.63968087  .00009591  00000+0  30234-3 0  9991", "line2": "2 42990  97.4289 125.6798 0001047 296.3414  63.7721 15.33101109455075"}}, "geometry": {"type": "Point", "coordinates": [-71.41472684052697, -66.42878187072517]}}, {"type": "Feature", "properties": {"norad_id": 42991, "name": "SKYSAT-C7", "group": "resource", "lat": 79.9424679687156, "lon": 79.6482833486587, "alt_km": 458.17468167246807, "timestamp": "2025-12-21T22:41:41.105178+00:00", "meta": {"OBJECT_NAME": "SKYSAT-C7", "OBJECT_ID": "2017-068E", "EPOCH": "2025-12-21T14:29:53.176416", "MEAN_MOTION": 15.32498854, "ECCENTRICITY": 0.00070975, "INCLINATION": 97.4298, "RA_OF_ASC_NODE": 126.6779, "ARG_OF_PERICENTER": 29.4906, "MEAN_ANOMALY": 330.6735, "EPHEMERIS_TYPE": 0, "CLASSIFICATION_TYPE": "U", "NORAD_CAT_ID": 42991, "ELEMENT_SET_NO": 999, "REV_AT_EPOCH": 45513, "BSTAR": 0.00028728053, "MEAN_MOTION_DOT": 8.944e-05, "MEAN_MOTION_DDOT": 0}, "tle": {"line1": "1 42991U 17068E   25355.60408769  .00008944  00000+0  28728-3 0  9991", "line2": "2 42991  97.4298 126.6779 0007097  29.4906 330.6735 15.32498854455131"}}, "geometry": {"type": "Point", "coordinates": [79.6482833486587, 79.9424679687156]}}, {"type": "Feature", "properties": {"norad_id": 42992, "name": "SKYSAT-C6", "group": "resource", "lat": 7.483980871263448, "lon": -51.565561947621596, "alt_km": 474.3563608370969, "timestamp": "2025-12-21T22:41:41.105190+00:00", "meta": {"OBJECT_NAME": "SKYSAT-C6", "OBJECT_ID": "2017-068F", "EPOCH": "2025-12-21T07:50:01.245120", "MEAN_MOTION": 15.31651111, "ECCENTRICITY": 0.0004953, "INCLINATION": 97.4327, "RA_OF_ASC_NODE": 126.8308, "ARG_OF_PERICENTER": 59.6747, "MEAN_ANOMALY": 300.4984, "EPHEMERIS_TYPE": 0, "CLASSIFICATION_TYPE": "U", "NORAD_CAT_ID": 42992, "ELEMENT_SET_NO": 999, "REV_AT_EPOCH": 45507, "BSTAR": 0.00028172, "MEAN_MOTION_DOT": 8.536e-05, "MEAN_MOTION_DDOT": 0}, "tle": {"line1": "1 42992U 17068F   25355.32640330  .00008536  00000+0  28172-3 0  9993", "line2": "2 42992  97.4327 126.8308 0004953  59.6747 300.4984 15.31651111455071"}}, "geometry": {"type": "Point", "coordinates": [-51.565561947621596, 7.483980871263448]}}, {"type": "Feature", "properties": {"norad_id": 43111, "name": "CARTOSAT-2F", "group": "resource", "lat": -50.542091298957764, "lon": -135.68853811637393, "alt_km": 515.6837858921499, "timestamp": "2025-12-21T22:41:41.105200+00:00", "meta": {"OBJECT_NAME": "CARTOSAT-2F", "OBJECT_ID": "2018-004A", "EPOCH": "2025-12-21T15:21:27.872352", "MEAN_MOTION": 15.19206361, "ECCENTRICITY": 0.00013999, "INCLINATION": 97.4307, "RA_OF_ASC_NODE": 53.1342, "ARG_OF_PERICENTER": 111.2589, "MEAN_ANOMALY": 248.8796, "EPHEMERIS_TYPE": 0, "CLASSIFICATION_TYPE": "U", "NORAD_CAT_ID": 43111, "ELEMENT_SET_NO": 999, "REV_AT_EPOCH": 44037, "BSTAR": 0.00031365646, "MEAN_MOTION_DOT": 6.536e-05, "MEAN_MOTION_DDOT": 0}, "tle": {"line1": "1 43111U 18004A   25355.63990593  .00006536  00000+0  31366-3 0  9998", "line2": "2 43111  97.4307  53.1342 0001399 111.2589 248.8796 15.19206361440375"}}, "geometry": {"type": "Point", "coordinates": [-135.68853811637393, -50.542091298957764]}}, {"type": "Feature", "properties": {"norad_id": 43259, "name": "GAOFEN-1 02", "group": "resource", "lat": 20.01558964972936, "lon": 50.772128905867746, "alt_km": 642.2442393319634, "timestamp": "2025-12-21T22:41:41.105210+00:00", "meta": {"OBJECT_NAME": "GAOFEN-1 02", "OBJECT_ID": "2018-031A", "EPOCH": "2025-12-21T14:28:14.789280", "MEAN_MOTION": 14.764336, "ECCENTRICITY": 0.00023565, "INCLINATION": 98.0799, "RA_OF_ASC_NODE": 53.3957, "ARG_OF_PERICENTER": 181.9347, "MEAN_ANOMALY": 178.1854, "EPHEMERIS_TYPE": 0, "CLASSIFICATION_TYPE": "U", "NORAD_CAT_ID": 43259, "ELEMENT_SET_NO": 999, "REV_AT_EPOCH": 41649, "BSTAR": 0.00018395797, "MEAN_MOTION_DOT": 1.227e-05, "MEAN_MOTION_DDOT": 0}, "tle": {"line1": "1 43259U 18031A   25355.60294895  .00001227  00000+0  18396-3 0  9990", "line2": "2 43259  98.0799  53.3957 0002356 181.9347 178.1854 14.76433600416490"}}, "geometry": {"type": "Point", "coordinates": [50.772128905867746, 20.01558964972936]}}, {"type": "Feature", "properties": {"norad_id": 43260, "name": "GAOFEN-1 03", "group": "resource", "lat": 43.16335479492491, "lon": -118.73110956698443, "alt_km": 637.8531722427197, "timestamp": "2025-12-21T22:41:41.105221+00:00", "meta": {"OBJECT_NAME": "GAOFEN-1 03", "OBJECT_ID": "2018-031B", "EPOCH": "2025-12-21T13:56:50.045856", "MEAN_MOTION": 14.76453577, "ECCENTRICITY": 0.00017, "INCLINATION": 98.0786, "RA_OF_ASC_NODE": 53.2493, "ARG_OF_PERICENTER": 275.3454, "MEAN_ANOMALY": 84.7562, "EPHEMERIS_TYPE": 0, "CLASSIFICATION_TYPE": "U", "NORAD_CAT_ID": 43260, "ELEMENT_SET_NO": 999, "REV_AT_EPOCH": 41648, "BSTAR": 0.00011330216, "MEAN_MOTION_DOT": 7.36e-06, "MEAN_MOTION_DDOT": 0}, "tle": {"line1": "1 43260U 18031B   25355.58113479  .00000736  00000+0  11330-3 0  9992", "line2": "2 43260  98.0786  53.2493 0001700 275.3454  84.7562 14.76453577416483"}}, "geometry": {"type": "Point", "coordinates": [-118.73110956698443, 43.16335479492491]}}, {"type": "Feature", "properties": {"norad_id": 43262, "name": "GAOFEN-1 04", "group": "resource", "lat": -80.79459065097394, "lon": 172.55217713856914, "alt_km": 648.3883911669591, "timestamp": "2025-12-21T22:41:41.105232+00:00", "meta": {"OBJECT_NAME": "GAOFEN-1 04", "OBJECT_ID": "2018-031D", "EPOCH": "2025-12-21T14:59:21.384384", "MEAN_MOTION": 14.76423302, "ECCENTRICITY": 6.993e-05, "INCLINATION": 98.08, "RA_OF_ASC_NODE": 53.4638, "ARG_OF_PERICENTER": 52.352, "MEAN_ANOMALY": 307.7753, "EPHEMERIS_TYPE": 0, "CLASSIFICATION_TYPE": "U", "NORAD_CAT_ID": 43262, "ELEMENT_SET_NO": 999, "REV_AT_EPOCH": 41648, "BSTAR": 0.00010907772, "MEAN_MOTION_DOT": 7.07e-06, "MEAN_MOTION_DDOT": 0}, "tle": {"line1": "1 43262U 18031D   25355.62455306  .00000707  00000+0  10908-3 0  9995", "line2": "2 43262  98.0800  53.4638 0000699  52.3520 307.7753 14.76423302416481"}}, "geometry": {"type": "Point", "coordinates": [172.55217713856914, -80.79459065097394]}}]}